{
  "type": "FeatureCollection",
  "features": [
    {
      "type": "Feature",
      "properties": {
        "norad_id": 31923,
        "name": "FENGYUN 1C DEB",
        "group": "fengyun-1c-debris",
        "lat": 67.02238680299409,
        "lon": -82.38563081280752,
        "alt_km": 1252.457368764085,
        "timestamp": "2025-12-08T19:31:49.093408+00:00",
        "meta_object_name": "FENGYUN 1C DEB",
        "meta_object_id": "1999-025CMA",
        "meta_epoch": "2025-12-07T05:45:32.283936",
        "meta_mean_motion": 13.54870138,
        "meta_eccentricity": 0.02998306,
        "meta_inclination": 98.439,
        "meta_ra_of_asc_node": 75.7726,
        "meta_arg_of_pericenter": 318.1759,
        "meta_mean_anomaly": 39.6815,
        "meta_ephemeris_type": 0,
        "meta_classification_type": "U",
        "meta_norad_cat_id": 31923,
        "meta_element_set_no": 999,
        "meta_rev_at_epoch": 63560,
        "meta_bstar": 0.0019569424,
        "meta_mean_motion_dot": 1.755e-05,
        "meta_mean_motion_ddot": 0,
        "tle_line1": "1 31923U 99025CMA 25341.23995699  .00001755  00000+0  19569-2 0  9999",
        "tle_line2": "2 31923  98.4390  75.7726 0299830 318.1759  39.6815 13.54870138635604"
      },
      "geometry": {
        "type": "Point",
        "coordinates": [
          -82.38563081280752,
          67.02238680299409
        ]
      }
    },
    {
      "type": "Feature",
      "properties": {
        "norad_id": 31924,
        "name": "FENGYUN 1C DEB",
        "group": "fengyun-1c-debris",
        "lat": -70.60135302296237,
        "lon": -64.12579366789055,
        "alt_km": 1192.8627355000363,
        "timestamp": "2025-12-08T19:31:49.093418+00:00",
        "meta_object_name": "FENGYUN 1C DEB",
        "meta_object_id": "1999-025CMB",
        "meta_epoch": "2025-12-06T09:58:46.050528",
        "meta_mean_motion": 13.63882234,
        "meta_eccentricity": 0.02732969,
        "meta_inclination": 98.4014,
        "meta_ra_of_asc_node": 138.613,
        "meta_arg_of_pericenter": 113.6676,
        "meta_mean_anomaly": 249.3407,
        "meta_ephemeris_type": 0,
        "meta_classification_type": "U",
        "meta_norad_cat_id": 31924,
        "meta_element_set_no": 999,
        "meta_rev_at_epoch": 91381,
        "meta_bstar": 0.0024555476,
        "meta_mean_motion_dot": 2.479e-05,
        "meta_mean_motion_ddot": 0,
        "tle_line1": "1 31924U 99025CMB 25340.41581077  .00002479  00000+0  24555-2 0  9995",
        "tle_line2": "2 31924  98.4014 138.6130 0273296 113.6676 249.3407 13.63882234913819"
      },
      "geometry": {
        "type": "Point",
        "coordinates": [
          -64.12579366789055,
          -70.60135302296237
        ]
      }
    },
    {
      "type": "Feature",
      "properties": {
        "norad_id": 31926,
        "name": "FENGYUN 1C DEB",
        "group": "fengyun-1c-debris",
        "lat": 78.0652799193995,
        "lon": -53.79974043601531,
        "alt_km": 809.2339280256701,
        "timestamp": "2025-12-08T19:31:49.093427+00:00",
        "meta_object_name": "FENGYUN 1C DEB",
        "meta_object_id": "1999-025CMD",
        "meta_epoch": "2025-12-08T05:38:37.497408",
        "meta_mean_motion": 14.30640099,
        "meta_eccentricity": 0.00387541,
        "meta_inclination": 98.9581,
        "meta_ra_of_asc_node": 77.3361,
        "meta_arg_of_pericenter": 266.0982,
        "meta_mean_anomaly": 93.5768,
        "meta_ephemeris_type": 0,
        "meta_classification_type": "U",
        "meta_norad_cat_id": 31926,
        "meta_element_set_no": 999,
        "meta_rev_at_epoch": 95163,
        "meta_bstar": 0.0032954446,
        "meta_mean_motion_dot": 8.643e-05,
        "meta_mean_motion_ddot": 0,
        "tle_line1": "1 31926U 99025CMD 25342.23515622  .00008643  00000+0  32954-2 0  9993",
        "tle_line2": "2 31926  98.9581  77.3361 0038754 266.0982  93.5768 14.30640099951638"
      },
      "geometry": {
        "type": "Point",
        "coordinates": [
          -53.79974043601531,
          78.0652799193995
        ]
      }
    },
    {
      "type": "Feature",
      "properties": {
        "norad_id": 31929,
        "name": "FENGYUN 1C DEB",
        "group": "fengyun-1c-debris",
        "lat": 43.89541734850761,
        "lon": -59.344881671420715,
        "alt_km": 751.7835900832606,
        "timestamp": "2025-12-08T19:31:49.093436+00:00",
        "meta_object_name": "FENGYUN 1C DEB",
        "meta_object_id": "1999-025CME",
        "meta_epoch": "2025-12-06T01:38:29.518080",
        "meta_mean_motion": 14.34908264,
        "meta_eccentricity": 0.00745832,
        "meta_inclination": 98.7915,
        "meta_ra_of_asc_node": 109.2976,
        "meta_arg_of_pericenter": 74.8463,
        "meta_mean_anomaly": 286.0955,
        "meta_ephemeris_type": 0,
        "meta_classification_type": "U",
        "meta_norad_cat_id": 31929,
        "meta_element_set_no": 999,
        "meta_rev_at_epoch": 70550,
        "meta_bstar": 0.00079666919,
        "meta_mean_motion_dot": 2.292e-05,
        "meta_mean_motion_ddot": 0,
        "tle_line1": "1 31929U 99025CME 25340.06839720  .00002292  00000+0  79667-3 0  9990",
        "tle_line2": "2 31929  98.7915 109.2976 0074583  74.8463 286.0955 14.34908264705501"
      },
      "geometry": {
        "type": "Point",
        "coordinates": [
          -59.344881671420715,
          43.89541734850761
        ]
      }
    },
    {
      "type": "Feature",
      "properties": {
        "norad_id": 31931,
        "name": "FENGYUN 1C DEB",
        "group": "fengyun-1c-debris",
        "lat": 76.86843599013338,
        "lon": 150.20046448485434,
        "alt_km": 1408.9596685870474,
        "timestamp": "2025-12-08T19:31:49.093445+00:00",
        "meta_object_name": "FENGYUN 1C DEB",
        "meta_object_id": "1999-025CMG",
        "meta_epoch": "2025-12-08T02:54:38.657664",
        "meta_mean_motion": 13.42606691,
        "meta_eccentricity": 0.04234013,
        "meta_inclination": 97.8131,
        "meta_ra_of_asc_node": 293.6089,
        "meta_arg_of_pericenter": 281.6721,
        "meta_mean_anomaly": 73.7205,
        "meta_ephemeris_type": 0,
        "meta_classification_type": "U",
        "meta_norad_cat_id": 31931,
        "meta_element_set_no": 999,
        "meta_rev_at_epoch": 65160,
        "meta_bstar": 0.0018287919,
        "meta_mean_motion_dot": 1.733e-05,
        "meta_mean_motion_ddot": 0,
        "tle_line1": "1 31931U 99025CMG 25342.12128076  .00001733  00000+0  18288-2 0  9997",
        "tle_line2": "2 31931  97.8131 293.6089 0423401 281.6721  73.7205 13.42606691651606"
      },
      "geometry": {
        "type": "Point",
        "coordinates": [
          150.20046448485434,
          76.86843599013338
        ]
      }
    },
    {
      "type": "Feature",
      "properties": {
        "norad_id": 31934,
        "name": "FENGYUN 1C DEB",
        "group": "fengyun-1c-debris",
        "lat": -46.903113346295406,
        "lon": -158.06935672995834,
        "alt_km": 528.7431377593111,
        "timestamp": "2025-12-08T19:31:49.093454+00:00",
        "meta_object_name": "FENGYUN 1C DEB",
        "meta_object_id": "1999-025CMK",
        "meta_epoch": "2025-12-04T09:16:56.352576",
        "meta_mean_motion": 15.05606214,
        "meta_eccentricity": 0.0038121,
        "meta_inclination": 98.8816,
        "meta_ra_of_asc_node": 26.4564,
        "meta_arg_of_pericenter": 260.5868,
        "meta_mean_anomaly": 99.1044,
        "meta_ephemeris_type": 0,
        "meta_classification_type": "U",
        "meta_norad_cat_id": 31934,
        "meta_element_set_no": 999,
        "meta_rev_at_epoch": 60717,
        "meta_bstar": 0.0071095,
        "meta_mean_motion_dot": 0.00105581,
        "meta_mean_motion_ddot": 0,
        "tle_line1": "1 31934U 99025CMK 25338.38676334  .00105581  00000+0  71095-2 0  9999",
        "tle_line2": "2 31934  98.8816  26.4564 0038121 260.5868  99.1044 15.05606214607177"
      },
      "geometry": {
        "type": "Point",
        "coordinates": [
          -158.06935672995834,
          -46.903113346295406
        ]
      }
    },
    {
      "type": "Feature",
      "properties": {
        "norad_id": 31937,
        "name": "FENGYUN 1C DEB",
        "group": "fengyun-1c-debris",
        "lat": -47.20086941339011,
        "lon": 81.96370832158388,
        "alt_km": 528.0787673722007,
        "timestamp": "2025-12-08T19:31:49.093463+00:00",
        "meta_object_name": "FENGYUN 1C DEB",
        "meta_object_id": "1999-025CMN",
        "meta_epoch": "2025-12-06T23:52:27.149088",
        "meta_mean_motion": 14.78022374,
        "meta_eccentricity": 0.0162921,
        "meta_inclination": 99.2561,
        "meta_ra_of_asc_node": 69.7316,
        "meta_arg_of_pericenter": 315.3928,
        "meta_mean_anomaly": 43.4262,
        "meta_ephemeris_type": 0,
        "meta_classification_type": "U",
        "meta_norad_cat_id": 31937,
        "meta_element_set_no": 999,
        "meta_rev_at_epoch": 65984,
        "meta_bstar": 0.0011794166,
        "meta_mean_motion_dot": 0.00010567,
        "meta_mean_motion_ddot": 0,
        "tle_line1": "1 31937U 99025CMN 25340.99475867  .00010567  00000+0  11794-2 0  9999",
        "tle_line2": "2 31937  99.2561  69.7316 0162921 315.3928  43.4262 14.78022374659842"
      },
      "geometry": {
        "type": "Point",
        "coordinates": [
          81.96370832158388,
          -47.20086941339011
        ]
      }
    }
  ]
}